{"type": "FeatureCollection", "features": [{"type": "Feature", "geometry": {"type": "Point", "coordinates": [-75.6123, 6.14845]}, "properties": {"predio_id": 1, "barrio": "Centro", "area_m2": 110, "colegio_id": 1, "colegio_nombre": "I.E. Adelaida Correa Estrada", "colegio_sector": "publico", "distancia_m": 14.0, "prioridad": "alta"}}, {"type": "Feature", "geometry": {"type": "Point", "coordinates": [-75.6123, 6.14845]}, "properties": {"predio_id": 1, "barrio": "Centro", "area_m2": 110, "colegio_id": 9, "colegio_nombre": "Colegio El Carmelo", "colegio_sector": "privado", "distancia_m": 263.6, "prioridad": "media"}}, {"type": "Feature", "geometry": {"type": "Point", "coordinates": [-75.6126, 6.1487]}, "properties": {"predio_id": 2, "barrio": "Centro", "area_m2": 95, "colegio_id": 1, "colegio_nombre": "I.E. Adelaida Correa Estrada", "colegio_sector": "publico", "distancia_m": 57.2, "prioridad": "alta"}}, {"type": "Feature", "geometry": {"type": "Point", "coordinates": [-75.6126, 6.1487]}, "properties": {"predio_id": 2, "barrio": "Centro", "area_m2": 95, "colegio_id": 9, "colegio_nombre": "Colegio El Carmelo", "colegio_sector": "privado", "distancia_m": 250.7, "prioridad": "media"}}, {"type": "Feature", "geometry": {"type": "Point", "coordinates": [-75.614, 6.1495]}, "properties": {"predio_id": 3, "barrio": "Centro", "area_m2": 140, "colegio_id": 1, "colegio_nombre": "I.E. Adelaida Correa Estrada", "colegio_sector": "publico", "distancia_m": 235.1, "prioridad": "media"}}, {"type": "Feature", "geometry": {"type": "Point", "coordinates": [-75.614, 6.1495]}, "properties": {"predio_id": 3, "barrio": "Centro", "area_m2": 140, "colegio_id": 9, "colegio_nombre": "Colegio El Carmelo", "colegio_sector": "privado", "distancia_m": 300.9, "prioridad": "baja"}}, {"type": "Feature", "geometry": {"type": "Point", "coordinates": [-75.6098, 6.147]}, "properties": {"predio_id": 4, "barrio": "Centro", "area_m2": 88, "colegio_id": 1, "colegio_nombre": "I.E. Adelaida Correa Estrada", "colegio_sector": "publico", "distancia_m": 305.9, "prioridad": "baja"}}, {"type": "Feature", "geometry": {"type": "Point", "coordinates": [-75.6098, 6.147]}, "properties": {"predio_id": 4, "barrio": "Centro", "area_m2": 88, "colegio_id": 9, "colegio_nombre": "Colegio El Carmelo", "colegio_sector": "privado", "distancia_m": 455.6, "prioridad": "baja"}}, {"type": "Feature", "geometry": {"type": "Point", "coordinates": [-75.6116, 6.15075]}, "properties": {"predio_id": 5, "barrio": "Alto Las Flores", "area_m2": 130, "colegio_id": 1, "colegio_nombre": "I.E. Adelaida Correa Estrada", "colegio_sector": "publico", "distancia_m": 271.2, "prioridad": "media"}}, {"type": "Feature", "geometry": {"type": "Point", "coordinates": [-75.6116, 6.15075]}, "properties": {"predio_id": 5, "barrio": "Alto Las Flores", "area_m2": 130, "colegio_id": 9, "colegio_nombre": "Colegio El Carmelo", "colegio_sector": "privado", "distancia_m": 4.8, "prioridad": "alta"}}, {"type": "Feature", "geometry": {"type": "Point", "coordinates": [-75.6116, 6.15075]}, "properties": {"predio_id": 5, "barrio": "Alto Las Flores", "area_m2": 130, "colegio_id": 10, "colegio_nombre": "Colegio ASPAEN Gimnasio Los Alcázares", "colegio_sector": "privado", "distancia_m": 293.0, "prioridad": "media"}}, {"type": "Feature", "geometry": {"type": "Point", "coordinates": [-75.612, 6.1511]}, "properties": {"predio_id": 6, "barrio": "Alto Las Flores", "area_m2": 102, "colegio_id": 1, "colegio_nombre": "I.E. Adelaida Correa Estrada", "colegio_sector": "publico", "distancia_m": 302.5, "prioridad": "baja"}}, {"type": "Feature", "geometry": {"type": "Point", "coordinates": [-75.612, 6.1511]}, "properties": {"predio_id": 6, "barrio": "Alto Las Flores", "area_m2": 102, "colegio_id": 9, "colegio_nombre": "Colegio El Carmelo", "colegio_sector": "privado", "distancia_m": 63.6, "prioridad": "alta"}}, {"type": "Feature", "geometry": {"type": "Point", "coordinates": [-75.612, 6.1511]}, "properties": {"predio_id": 6, "barrio": "Alto Las Flores", "area_m2": 102, "colegio_id": 10, "colegio_nombre": "Colegio ASPAEN Gimnasio Los Alcázares", "colegio_sector": "privado", "distancia_m": 313.3, "prioridad": "baja"}}, {"type": "Feature", "geometry": {"type": "Point", "coordinates": [-75.6098, 6.1523]}, "properties": {"predio_id": 7, "barrio": "Alto Las Flores", "area_m2": 76, "colegio_id": 9, "colegio_nombre": "Colegio El Carmelo", "colegio_sector": "privado", "distancia_m": 262.6, "prioridad": "media"}}, {"type": "Feature", "geometry": {"type": "Point", "coordinates": [-75.6098, 6.1523]}, "properties": {"predio_id": 7, "barrio": "Alto Las Flores", "area_m2": 76, "colegio_id": 10, "colegio_nombre": "Colegio ASPAEN Gimnasio Los Alcázares", "colegio_sector": "privado", "distancia_m": 44.5, "prioridad": "alta"}}, {"type": "Feature", "geometry": {"type": "Point", "coordinates": [-75.6098, 6.1523]}, "properties": {"predio_id": 7, "barrio": "Alto Las Flores", "area_m2": 76, "colegio_id": 2, "colegio_nombre": "I.E. Concejo de Sabaneta José María Ceballos Botero", "colegio_sector": "publico", "distancia_m": 358.8, "prioridad": "baja"}}, {"type": "Feature", "geometry": {"type": "Point", "coordinates": [-75.614, 6.1429]}, "properties": {"predio_id": 8, "barrio": "San Isidro", "area_m2": 150, "colegio_id": 14, "colegio_nombre": "Fundación Universitaria San Martín", "colegio_sector": "privado", "distancia_m": 128.2, "prioridad": "alta"}}, {"type": "Feature", "geometry": {"type": "Point", "coordinates": [-75.614, 6.1429]}, "properties": {"predio_id": 8, "barrio": "San Isidro", "area_m2": 150, "colegio_id": 13, "colegio_nombre": "UNISABANETA (Corporación Universitaria Unisabaneta)", "colegio_sector": "privado", "distancia_m": 10.0, "prioridad": "alta"}}, {"type": "Feature", "geometry": {"type": "Point", "coordinates": [-75.614, 6.1429]}, "properties": {"predio_id": 8, "barrio": "San Isidro", "area_m2": 150, "colegio_id": 6, "colegio_nombre": "I.E. Primitivo Leal La Doctora", "colegio_sector": "publico", "distancia_m": 184.6, "prioridad": "media"}}, {"type": "Feature", "geometry": {"type": "Point", "coordinates": [-75.6143, 6.1433]}, "properties": {"predio_id": 9, "barrio": "San Isidro", "area_m2": 98, "colegio_id": 14, "colegio_nombre": "Fundación Universitaria San Martín", "colegio_sector": "privado", "distancia_m": 175.8, "prioridad": "media"}}, {"type": "Feature", "geometry": {"type": "Point", "coordinates": [-75.6143, 6.1433]}, "properties": {"predio_id": 9, "barrio": "San Isidro", "area_m2": 98, "colegio_id": 13, "colegio_nombre": "UNISABANETA (Corporación Universitaria Unisabaneta)", "colegio_sector": "privado", "distancia_m": 58.8, "prioridad": "alta"}}, {"type": "Feature", "geometry": {"type": "Point", "coordinates": [-75.6143, 6.1433]}, "properties": {"predio_id": 9, "barrio": "San Isidro", "area_m2": 98, "colegio_id": 6, "colegio_nombre": "I.E. Primitivo Leal La Doctora", "colegio_sector": "publico", "distancia_m": 237.0, "prioridad": "media"}}, {"type": "Feature", "geometry": {"type": "Point", "coordinates": [-75.616, 6.1445]}, "properties": {"predio_id": 10, "barrio": "San Isidro", "area_m2": 120, "colegio_id": 14, "colegio_nombre": "Fundación Universitaria San Martín", "colegio_sector": "privado", "distancia_m": 405.1, "prioridad": "baja"}}, {"type": "Feature", "geometry": {"type": "Point", "coordinates": [-75.616, 6.1445]}, "properties": {"predio_id": 10, "barrio": "San Isidro", "area_m2": 120, "colegio_id": 13, "colegio_nombre": "UNISABANETA (Corporación Universitaria Unisabaneta)", "colegio_sector": "privado", "distancia_m": 288.5, "prioridad": "media"}}, {"type": "Feature", "geometry": {"type": "Point", "coordinates": [-75.616, 6.1445]}, "properties": {"predio_id": 10, "barrio": "San Isidro", "area_m2": 120, "colegio_id": 6, "colegio_nombre": "I.E. Primitivo Leal La Doctora", "colegio_sector": "publico", "distancia_m": 446.6, "prioridad": "baja"}}, {"type": "Feature", "geometry": {"type": "Point", "coordinates": [-75.616, 6.1445]}, "properties": {"predio_id": 10, "barrio": "San Isidro", "area_m2": 120, "colegio_id": 15, "colegio_nombre": "Fundación Universitaria CEIPA", "colegio_sector": "privado", "distancia_m": 409.8, "prioridad": "baja"}}]}